# From MPC106342
C/1995 O1 (Hale-Bopp),e,89.0492,283.2350,130.5078,178.5917,0.0004130,0.99495228,0.0000,03/29.7412/1997,2000,g -2.0,4.0
# From NK 1615
P/1996 R2 (Lagerkvist),e,2.6004,40.0246,333.3198,3.775025,0.1343768,0.31416536,108.3376,04/28.0/2021,2000,g 11.5,4.0
# From MPC 30063
P/1997 B1 (Kobayashi),e,12.3395,328.8822,183.3425,8.573045,0.0392646,0.76019745,346.8554,04/28.0/2021,2000,g 15.0,2.0
# From MPC 75703
P/1998 VS24 (LINEAR),e,5.0259,159.0340,244.6371,4.528635,0.1022711,0.24219980,122.3061,04/28.0/2021,2000,g 13.0,2.0
# From NK 731
P/1999 RO28 (LONEOS),e,7.5672,137.8852,231.2648,3.426733,0.1553759,0.67218213,104.3804,04/28.0/2021,2000,g 20.0,2.0
# From MPC 75704
P/1999 XN120 (Catalina),e,5.0297,285.2961,161.8511,4.179011,0.1153702,0.21025158,163.5950,04/28.0/2021,2000,g 13.5,2.0
# From NK 744
P/2000 R2 (LINEAR),e,11.6857,160.2892,176.5338,3.466524,0.1527083,0.53159995,103.9196,04/28.0/2021,2000,g 18.0,4.0
# From MPC 43019
P/2001 H5 (NEAT),e,8.3669,328.6836,224.8549,6.097892,0.0654537,0.59848205,132.1157,04/28.0/2021,2000,g 12.0,4.0
# From MPC 75704
P/2001 Q6 (NEAT),e,56.9070,22.1495,42.9344,7.952734,0.0439470,0.82292593,314.4324,04/28.0/2021,2000,g 13.5,4.0
# From MPC 47727
P/2002 EJ57 (LINEAR),e,4.9762,330.3257,167.3634,6.471312,0.0598709,0.59250912,62.5569,04/28.0/2021,2000,g 12.5,4.0
# From MPC109588
P/2002 T6 (NEAT-LINEAR),e,10.8355,206.3212,219.6514,7.679828,0.0463102,0.56050196,305.2769,04/28.0/2021,2000,g 10.5,4.0
# From MPC 75007
C/2002 VQ94 (LINEAR),e,70.5973,35.0428,100.1363,185.3036,0.0003907,0.96313474,2.1763,04/28.0/2021,2000,g  9.5,2.0
# From MPC 50354
P/2003 F2 (NEAT),e,11.6052,359.0453,192.0413,6.496702,0.0595202,0.54232978,31.6897,04/28.0/2021,2000,g 16.5,2.0
# From MPC 50139
P/2003 QX29 (NEAT),e,11.3900,264.5740,37.4681,8.028924,0.0433230,0.47299690,292.4066,04/28.0/2021,2000,g  8.5,4.0
# From MPC105235
P/2003 T12 (SOHO),e,11.0187,174.5752,219.7602,2.586030,0.2370029,0.76971900,84.4006,04/28.0/2021,2000,g 17.0,4.0
# From MPC 82312
P/2004 A1 (LONEOS),e,10.5516,124.8471,21.3338,7.959477,0.0438912,0.30932097,268.0536,04/28.0/2021,2000,g  6.5,4.0
# From MPC 54558
P/2004 DO29 (Spacewatch-LINEAR),e,14.5322,147.3742,40.6858,7.284790,0.0501278,0.44118899,303.1737,04/28.0/2021,2000,g 13.5,2.0
# From MPC 54823
P/2004 FY140 (LINEAR),e,2.1348,326.7619,242.4164,4.902869,0.0907880,0.16834474,191.1421,04/28.0/2021,2000,g 12.5,2.0
# From MPC 53304
P/2004 R3 (LINEAR-NEAT),e,12.8136,305.4756,38.1490,4.796245,0.0938322,0.26059217,345.9857,04/28.0/2021,2000,g 14.5,4.0
# From MPC 55521
P/2004 V3 (Siding Spring),e,50.4387,356.1216,322.3389,7.141547,0.0516435,0.44633845,311.5523,04/28.0/2021,2000,g 11.5,4.0
# From MPC 75705
P/2004 V5 (LINEAR-Hill),e,19.3427,47.7806,87.7245,7.978674,0.0437329,0.44357562,259.2498,04/28.0/2021,2000,g  8.0,4.0
# From MPC 54164
P/2005 E1 (Tubbiolo),e,4.2637,335.5686,194.0740,7.039743,0.0527678,0.37514130,313.3170,04/28.0/2021,2000,g 10.0,4.0
# From MPC 54823
P/2005 GF8 (LONEOS),e,1.1917,314.8049,284.8319,5.841551,0.0698091,0.51762774,40.3097,04/28.0/2021,2000,g 11.5,4.0
# From MPC 79019
P/2005 J1 (McNaught),e,31.7626,268.8096,338.9618,3.570286,0.1460998,0.56968469,135.6447,04/28.0/2021,2000,g 16.5,4.0
# From MPC 74246
P/2005 L1 (McNaught),e,7.7386,138.2480,149.7211,3.975438,0.1243445,0.20947058,336.5340,04/28.0/2021,2000,g  9.5,4.0
# From MPC 75706
P/2005 S2 (Skiff),e,3.1357,161.2067,229.1582,8.015443,0.0434323,0.19729203,237.4954,04/28.0/2021,2000,g  7.5,4.0
# From MPC 75706
P/2005 SB216 (LONEOS),e,24.0824,1.2021,83.3694,7.130510,0.0517634,0.46361009,270.6154,04/28.0/2021,2000,g 12.0,2.0
# From MPC 55717
P/2005 T2 (Christensen),e,8.2923,260.1592,58.8293,3.846413,0.1306533,0.41638432,50.2487,04/28.0/2021,2000,g 14.5,4.0
# From MPC 73461
P/2005 T3 (Read),e,6.2240,27.7217,6.8657,7.581288,0.0472160,0.17430197,268.4059,04/28.0/2021,2000,g  9.0,4.0
# From MPC 73461
P/2005 T4 (SWAN),e,160.2051,25.7354,41.6399,9.361226,0.0344116,0.92979988,195.7762,04/28.0/2021,2000,g 15.0,4.0
# From MPC 75706
P/2005 T5 (Broughton),e,21.3588,57.0032,304.5561,7.289957,0.0500745,0.55224359,284.4694,04/28.0/2021,2000,g 11.0,4.0
# From MPC 56954
P/2005 W3 (Kowalski),e,16.4200,210.0855,200.7200,6.329172,0.0618990,0.54337348,350.9712,04/28.0/2021,2000,g 12.0,4.0
# From MPC 75706
P/2005 Y2 (McNaught),e,19.0676,94.4506,193.9382,6.385605,0.0610803,0.47072777,11.6058,04/28.0/2021,2000,g  9.0,4.0
# From MPC 56954
P/2006 F4 (Spacewatch),e,12.4180,183.8377,31.0196,3.523276,0.1490335,0.33988335,94.5663,04/28.0/2021,2000,g 15.0,4.0
# From MPC 75707
P/2006 HR30 (Siding Spring),e,31.8302,309.9016,117.2901,7.811207,0.0451468,0.84223574,237.0244,04/28.0/2021,2000,g 11.0,4.0
# From MPC 75707
P/2006 S4 (Christensen),e,39.5320,36.0842,305.1459,6.315067,0.0621065,0.50828922,343.7524,04/28.0/2021,2000,g 11.0,4.0
# From MPC 75707
P/2007 A2 (Christensen),e,26.4877,300.9074,186.7374,6.327389,0.0619252,0.55771333,324.0668,04/28.0/2021,2000,g 13.5,4.0
# From MPC 75707
P/2007 C2 (Catalina),e,8.6415,275.5435,180.0052,6.992374,0.0533049,0.47069278,264.3936,04/28.0/2021,2000,g 10.0,4.0
# From MPC 84315
C/2007 D1 (LINEAR),e,41.5017,171.2020,340.0372,1440,0.0000180,0.99387099,0.0000,06/08.7190/2007,2000,g  3.5,4.0
# From MPC 82314
P/2007 K2 (Gibbs),e,7.6331,188.6434,347.4460,7.264971,0.0503331,0.68314371,255.6352,04/28.0/2021,2000,g 14.0,4.0
# From MPC 60925
P/2007 Q2 (Gilmore),e,10.2027,172.1601,162.7761,5.652627,0.0733379,0.67012008,11.1496,04/28.0/2021,2000,g 16.0,4.0
# From MPC 75708
P/2007 R4 (Garradd),e,20.2164,87.2170,282.6024,5.933916,0.0681855,0.67018909,344.6750,04/28.0/2021,2000,g 14.5,4.0
# From MPC 73462
P/2007 S1 (Zhao),e,5.9637,141.3728,245.6414,3.815321,0.1322536,0.33957847,290.1325,04/28.0/2021,2000,g 13.0,4.0
# From MPC 61994
P/2007 T2 (Kowalski),e,9.7479,3.3746,359.6381,3.046963,0.1853119,0.78536927,186.9981,04/28.0/2021,2000,g 18.5,4.0
# From MPC 75708
P/2008 CL94 (Lemmon),e,8.3467,33.3230,80.4414,6.162390,0.0644288,0.12043844,350.6097,04/28.0/2021,2000,g  8.0,4.0
# From MPC 75709
P/2008 L2 (Hill),e,25.8612,218.0079,141.2219,6.028443,0.0665881,0.61316770,310.5161,04/28.0/2021,2000,g 12.5,4.0
# From MPC 64114
P/2008 O3 (Boattini),e,32.2676,47.5889,341.0977,8.221603,0.0418090,0.69539381,197.4201,04/28.0/2021,2000,g 13.0,4.0
# From MPC 75709
P/2008 QP20 (LINEAR-Hill),e,7.5228,322.0724,75.5447,3.553949,0.1471084,0.49189729,323.3507,04/28.0/2021,2000,g 15.5,4.0
# From MPC 66204
P/2008 WZ96 (LINEAR),e,7.1114,56.4499,341.9205,3.487875,0.1513083,0.46994844,341.7273,04/28.0/2021,2000,g 13.5,4.0
# From MPC 75710
P/2008 Y3 (McNaught),e,38.7660,262.8003,238.2193,8.046691,0.0431795,0.44546512,194.6917,04/28.0/2021,2000,g  8.5,4.0
# From MPC 75710
P/2009 B1 (Boattini),e,22.2202,297.0901,128.8813,6.736745,0.0563675,0.63481179,253.3739,04/28.0/2021,2000,g 13.0,4.0
# From MPC 66466
C/2009 G1 (STEREO),e,108.7343,120.4400,175.4166,435.4890,0.0001085,0.99739046,0.0000,04/15.7651/2009,2000,g  9.0,4.0
# From MPC 75710
P/2009 O3 (Hill),e,16.2722,183.7048,154.4137,7.769502,0.0455108,0.68772162,198.3728,04/28.0/2021,2000,g 12.5,4.0
# From MPC 68902
P/2009 Q5 (McNaught),e,40.9822,160.2722,209.0263,7.436385,0.0486028,0.60898810,206.7297,04/28.0/2021,2000,g 10.0,4.0
# From MPC112389
P/2009 T2 (La Sagra),e,27.5605,215.8150,216.3917,7.723436,0.0459186,0.76531369,190.0937,04/28.0/2021,2000,g 14.0,4.0
# From MPC 75711
P/2009 U4 (McNaught),e,10.0807,55.3493,259.8356,5.082252,0.0860240,0.67602198,7.3907,04/28.0/2021,2000,g 14.0,4.0
# From MPC105235
P/2009 WX51 (Catalina),e,9.5951,31.6801,118.0825,3.080726,0.1822739,0.74028651,29.6446,04/28.0/2021,2000,g 19.0,2.0
# From MPC 74247
P/2009 Y2 (Kowalski),e,29.9330,262.0253,172.1514,6.549754,0.0587985,0.63599988,239.6709,04/28.0/2021,2000,g 13.0,4.0
# From MPC 75711
P/2010 A3 (Hill),e,14.8443,63.9317,42.0709,6.077457,0.0657841,0.73344013,266.9135,04/28.0/2021,2000,g 14.0,4.0
# From MPC 75008
P/2010 C1 (Scotti),e,9.1281,141.8860,3.6966,7.103431,0.0520597,0.25875025,217.8077,04/28.0/2021,2000,g  9.5,4.0
# From MPC 75008
P/2010 D2 (WISE),e,57.0853,319.8913,120.0522,6.716681,0.0566203,0.45096671,231.6478,04/28.0/2021,2000,g 16.0,4.0
# From MPC 75009
P/2010 E2 (Jarnac),e,15.3979,177.8238,8.3634,8.638870,0.0388167,0.71995784,156.9905,04/28.0/2021,2000,g 14.0,4.0
# From MPC 72851
P/2010 H2 (Vales),e,14.2738,64.1996,128.1336,3.833765,0.1313003,0.19581090,174.2719,04/28.0/2021,2000,g  6.0,4.0
# From MPC 70361
P/2010 H3 (SOHO),e,23.0855,77.1001,26.1399,3.037818,0.1861493,0.98538281,0.0000,02/07.9646/2021,2000,g 20.0,2.0
# From MPC 73463
P/2010 H4 (Scotti),e,2.3186,44.7419,179.5383,6.591507,0.0582408,0.26720574,231.0152,04/28.0/2021,2000,g 10.5,4.0
# From MPC 74637
P/2010 H5 (Scotti),e,14.0639,24.8059,175.2048,7.161451,0.0514283,0.15328460,207.7807,04/28.0/2021,2000,g 13.0,2.0
# From MPC 98558
P/2010 J3 (McMillan),e,13.2866,106.4164,157.5957,8.972431,0.0366724,0.72696081,142.8118,04/28.0/2021,2000,g 11.0,4.0
# From MPC 84315
P/2010 JC81 (WISE),e,38.7452,30.8475,12.4325,8.109859,0.0426760,0.77696103,156.2446,04/28.0/2021,2000,g  9.0,4.0
# From MPC 74248
P/2010 T2 (PANSTARRS),e,7.9007,58.9149,353.4416,5.526112,0.0758708,0.32151230,279.5444,04/28.0/2021,2000,g 11.5,4.0
# From MPC 98558
P/2010 TO20 (LINEAR-Grauer),e,2.4790,43.2941,266.8079,5.830353,0.0700103,0.05491814,320.0304,04/28.0/2021,2000,g  9.0,4.0
# From MPC 82316
P/2010 U1 (Boattini),e,8.2149,280.7098,85.9505,6.510067,0.0593370,0.24834555,243.9413,04/28.0/2021,2000,g  9.5,4.0
# From MPC119994
C/2010 U3 (Boattini),e,55.5269,43.0235,88.0638,2295,0.0000090,0.99632097,0.0000,02/25.6592/2019,2000,g  1.0,4.0
# From MPC 79021
P/2010 UH55 (Spacewatch),e,8.0424,232.9566,225.1770,6.652346,0.0574436,0.56339045,210.8024,04/28.0/2021,2000,g 11.0,4.0
# From MPC 75009
P/2010 WK (LINEAR),e,11.4009,11.3215,40.9750,5.761132,0.0712758,0.68992497,275.8138,04/28.0/2021,2000,g 14.5,2.0
# From MPC 82317
P/2011 A2 (Scotti),e,4.4750,54.6765,94.5172,3.105834,0.1800681,0.49947286,320.8085,04/28.0/2021,2000,g 16.5,4.0
# From MPC 84021
